IRIDIUM 26              
1 24903U 97043A   25259.18611615  .00000398  00000+0  12715-3 0  9991
2 24903  86.3900  72.3612 0002269  94.4449 265.7008 14.37207527469814
IRIDIUM 22              
1 24907U 97043E   25259.19133359  .00000344  00000+0  11156-3 0  9999
2 24907  86.3900  75.9799 0002246  89.3500 270.7954 14.36013237469839
DUMMY MASS 1            
1 24925U 97048A   25259.06124939  .00000373  00000+0  38404-4 0  9992
2 24925  86.3288  93.2942 0006877 164.0580 196.0863 14.87053002518636
DUMMY MASS 2            
1 24926U 97048B   25259.03854294  .00000365  00000+0  37747-4 0  9994
2 24926  86.3291  94.9307 0007110 177.6678 182.4581 14.86804643518408
IRIDIUM 29              
1 24944U 97051A   25259.04231083  .00000340  00000+0  10925-3 0  9995
2 24944  86.3909 105.7844 0002077  82.2260 277.9173 14.36533912466318
IRIDIUM 33              
1 24946U 97051C   25259.05453988  .00000260  00000+0  84475-4 0  9991
2 24946  86.3824 105.0471 0009260 131.2819 228.9177 14.34939982465775
IRIDIUM 28              
1 24948U 97051E   25259.02802363  .00000292  00000+0  91029-4 0  9993
2 24948  86.3912 103.2522 0002444  98.7791 261.3684 14.37441367466891
IRIDIUM 36              
1 24967U 97056C   25259.11627218  .00000292  00000+0  90642-4 0  9993
2 24967  86.3982 134.8339 0002386  86.8262 273.3209 14.37670831465289
